{"type": "FeatureCollection", "features": [ {"type": "Feature", "properties": {"norad_id": 31182, "name": "FENGYUN 1C DEB", "group": "fengyun-1c-debris", "lat": 44.43542800251253, "lon": -24.81156846045284, "alt_km": 833.5019646063793, "timestamp": "2025-12-21T03:56:51.116497+00:00", "meta": {"OBJECT_NAME": "FENGYUN 1C DEB", "OBJECT_ID": "1999-025BJL", "EPOCH": "2025-12-17T10:29:25.287072", "MEAN_MOTION": 14.14559703, "ECCENTRICITY": 0.00234665, "INCLINATION": 98.6819, "RA_OF_ASC_NODE": 340.1808, "ARG_OF_PERICENTER": 123.4909, "MEAN_ANOMALY": 31.1675, "EPHEMERIS_TYPE": 0, "CLASSIFICATION_TYPE": "U", "NORAD_CAT_ID": 31182, "ELEMENT_SET_NO": 999, "REV_AT_EPOCH": 96147, "BSTAR": 0.00031818865, "MEAN_MOTION_DOT": 5.7e-06, "MEAN_MOTION_DDOT": 0}, "tle": {"line1": "1 31182U 99025BJL 25351.43709823  .00000570  00000+0  31819-3 0  9998", "line2": "2 31182  98.6819 340.1808 0023466 123.4909  31.1675 14.14559703961470"}}, "geometry": {"type": "Point", "coordinates": [-24.81156846045284, 44.43542800251253]}}, {"type": "Feature", "properties": {"norad_id": 31183, "name": "FENGYUN 1C DEB", "group": "fengyun-1c-debris", "lat": -34.90043056023163, "lon": -14.11008257581622, "alt_km": 745.9760382987661, "timestamp": "2025-12-21T03:56:51.116506+00:00", "meta": {"OBJECT_NAME": "FENGYUN 1C DEB", "OBJECT_ID": "1999-025BJM", "EPOCH": "2025-12-20T10:35:54.469824", "MEAN_MOTION": 14.50497467, "ECCENTRICITY": 0.00477897, "INCLINATION": 99.0368, "RA_OF_ASC_NODE": 338.7402, "ARG_OF_PERICENTER": 84.755, "MEAN_ANOMALY": 67.8714, "EPHEMERIS_TYPE": 0, "CLASSIFICATION_TYPE": "U", "NORAD_CAT_ID": 31183, "ELEMENT_SET_NO": 999, "REV_AT_EPOCH": 97594, "BSTAR": 0.00080382621, "MEAN_MOTION_DOT": 3.141e-05, "MEAN_MOTION_DDOT": 0}, "tle": {"line1": "1 31183U 99025BJM 25354.44160266  .00003141  00000+0  80383-3 0  9992", "line2": "2 31183  99.0368 338.7402 0047789  84.7550  67.8714 14.50497467975948"}}, "geometry": {"type": "Point", "coordinates": [-14.11008257581622, -34.90043056023163]}}, {"type": "Feature", "properties": {"norad_id": 31185, "name": "FENGYUN 1C DEB", "group": "fengyun-1c-debris", "lat": -78.5489158176958, "lon": 41.52140439494934, "alt_km": 919.633524031954, "timestamp": "2025-12-21T03:56:51.116515+00:00", "meta": {"OBJECT_NAME": "FENGYUN 1C DEB", "OBJECT_ID": "1999-025BJP", "EPOCH": "2025-12-03T06:44:56.905152", "MEAN_MOTION": 14.03019915, "ECCENTRICITY": 0.0041359, "INCLINATION": 98.8321, "RA_OF_ASC_NODE": 334.0356, "ARG_OF_PERICENTER": 132.5488, "MEAN_ANOMALY": 227.9182, "EPHEMERIS_TYPE": 0, "CLASSIFICATION_TYPE": "U", "NORAD_CAT_ID": 31185, "ELEMENT_SET_NO": 999, "REV_AT_EPOCH": 62204, "BSTAR": 0.0004459, "MEAN_MOTION_DOT": 6.55e-06, "MEAN_MOTION_DDOT": 0}, "tle": {"line1": "1 31185U 99025BJP 25337.28121418  .00000655  00000+0  44590-3 0  9990", "line2": "2 31185  98.8321 334.0356 0041359 132.5488 227.9182 14.03019915622046"}}, "geometry": {"type": "Point", "coordinates": [41.52140439494934, -78.5489158176958]}}, {"type": "Feature", "properties": {"norad_id": 31186, "name": "FENGYUN 1C DEB", "group": "fengyun-1c-debris", "lat": 39.4486851634121, "lon": -96.91142649362907, "alt_km": 827.1661582945026, "timestamp": "2025-12-21T03:56:51.116524+00:00", "meta": {"OBJECT_NAME": "FENGYUN 1C DEB", "OBJECT_ID": "1999-025BJQ", "EPOCH": "2025-12-19T13:30:27.946080", "MEAN_MOTION": 14.12917828, "ECCENTRICITY": 0.0026476, "INCLINATION": 99.1791, "RA_OF_ASC_NODE": 269.0931, "ARG_OF_PERICENTER": 44.5258, "MEAN_ANOMALY": 133.2754, "EPHEMERIS_TYPE": 0, "CLASSIFICATION_TYPE": "U", "NORAD_CAT_ID": 31186, "ELEMENT_SET_NO": 999, "REV_AT_EPOCH": 96201, "BSTAR": 0.00034315, "MEAN_MOTION_DOT": 5.94e-06, "MEAN_MOTION_DDOT": 0}, "tle": {"line1": "1 31186U 99025BJQ 25353.56282345  .00000594  00000+0  34315-3 0  9993", "line2": "2 31186  99.1791 269.0931 0026476  44.5258 133.2754 14.12917828962016"}}, "geometry": {"type": "Point", "coordinates": [-96.91142649362907, 39.4486851634121]}}, {"type": "Feature", "properties": {"norad_id": 31187, "name": "FENGYUN 1C DEB", "group": "fengyun-1c-debris", "lat": -79.81855362127254, "lon": -25.46304108774612, "alt_km": 639.4387188279261, "timestamp": "2025-12-21T03:56:51.116533+00:00", "meta": {"OBJECT_NAME": "FENGYUN 1C DEB", "OBJECT_ID": "1999-025BJR", "EPOCH": "2025-12-18T02:20:54.271104", "MEAN_MOTION": 14.59549756, "ECCENTRICITY": 0.02196552, "INCLINATION": 99.2414, "RA_OF_ASC_NODE": 216.1564, "ARG_OF_PERICENTER": 207.4437, "MEAN_ANOMALY": 151.5021, "EPHEMERIS_TYPE": 0, "CLASSIFICATION_TYPE": "U", "NORAD_CAT_ID": 31187, "ELEMENT_SET_NO": 999, "REV_AT_EPOCH": 69178, "BSTAR": 0.0021858268, "MEAN_MOTION_DOT": 0.00014532, "MEAN_MOTION_DDOT": 0}, "tle": {"line1": "1 31187U 99025BJR 25352.09785036  .00014532  00000+0  21858-2 0  9990", "line2": "2 31187  99.2414 216.1564 0219655 207.4437 151.5021 14.59549756691782"}}, "geometry": {"type": "Point", "coordinates": [-25.46304108774612, -79.81855362127254]}}, {"type": "Feature", "properties": {"norad_id": 31188, "name": "FENGYUN 1C DEB", "group": "fengyun-1c-debris", "lat": 55.56005593234798, "lon": 49.93286997621274, "alt_km": 849.7204617444158, "timestamp": "2025-12-21T03:56:51.116542+00:00", "meta": {"OBJECT_NAME": "FENGYUN 1C DEB", "OBJECT_ID": "1999-025BJS", "EPOCH": "2025-12-20T10:54:53.855136", "MEAN_MOTION": 14.23871102, "ECCENTRICITY": 0.00606883, "INCLINATION": 98.7482, "RA_OF_ASC_NODE": 62.2032, "ARG_OF_PERICENTER": 227.2613, "MEAN_ANOMALY": 153.7162, "EPHEMERIS_TYPE": 0, "CLASSIFICATION_TYPE": "U", "NORAD_CAT_ID": 31188, "ELEMENT_SET_NO": 999, "REV_AT_EPOCH": 96446, "BSTAR": 0.0010018781, "MEAN_MOTION_DOT": 2.294e-05, "MEAN_MOTION_DDOT": 0}, "tle": {"line1": "1 31188U 99025BJS 25354.45478999  .00002294  00000+0  10019-2 0  9999", "line2": "2 31188  98.7482  62.2032 0060688 227.2613 153.7162 14.23871102964460"}}, "geometry": {"type": "Point", "coordinates": [49.93286997621274, 55.56005593234798]}}, {"type": "Feature", "properties": {"norad_id": 31190, "name": "FENGYUN 1C DEB", "group": "fengyun-1c-debris", "lat": -36.60677017128646, "lon": 14.258742432858165, "alt_km": 884.8003665323959, "timestamp": "2025-12-21T03:56:51.116564+00:00", "meta": {"OBJECT_NAME": "FENGYUN 1C DEB", "OBJECT_ID": "1999-025BJU", "EPOCH": "2025-12-15T23:14:05.075520", "MEAN_MOTION": 14.03609027, "ECCENTRICITY": 0.00676763, "INCLINATION": 98.819, "RA_OF_ASC_NODE": 2.5971, "ARG_OF_PERICENTER": 250.3103, "MEAN_ANOMALY": 109.0754, "EPHEMERIS_TYPE": 0, "CLASSIFICATION_TYPE": "U", "NORAD_CAT_ID": 31190, "ELEMENT_SET_NO": 999, "REV_AT_EPOCH": 95592, "BSTAR": 0.00091857664, "MEAN_MOTION_DOT": 1.428e-05, "MEAN_MOTION_DDOT": 0}, "tle": {"line1": "1 31190U 99025BJU 25349.96811430  .00001428  00000+0  91858-3 0  9992", "line2": "2 31190  98.8190   2.5971 0067676 250.3103 109.0754 14.03609027955929"}}, "geometry": {"type": "Point", "coordinates": [14.258742432858165, -36.60677017128646]}}, {"type": "Feature", "properties": {"norad_id": 31191, "name": "FENGYUN 1C DEB", "group": "fengyun-1c-debris", "lat": -60.391090025302425, "lon": 60.494811704123755, "alt_km": 742.2262711093344, "timestamp": "2025-12-21T03:56:51.116574+00:00", "meta": {"OBJECT_NAME": "FENGYUN 1C DEB", "OBJECT_ID": "1999-025BJV", "EPOCH": "2025-12-20T00:10:04.982304", "MEAN_MOTION": 14.40805759, "ECCENTRICITY": 0.00926097, "INCLINATION": 98.7829, "RA_OF_ASC_NODE": 255.0929, "ARG_OF_PERICENTER": 172.7634, "MEAN_ANOMALY": 187.4915, "EPHEMERIS_TYPE": 0, "CLASSIFICATION_TYPE": "U", "NORAD_CAT_ID": 31191, "ELEMENT_SET_NO": 999, "REV_AT_EPOCH": 98117, "BSTAR": 0.00021491188, "MEAN_MOTION_DOT": 6.75e-06, "MEAN_MOTION_DDOT": 0}, "tle": {"line1": "1 31191U 99025BJV 25354.00700211  .00000675  00000+0  21491-3 0  9997", "line2": "2 31191  98.7829 255.0929 0092609 172.7634 187.4915 14.40805759981172"}}, "geometry": {"type": "Point", "coordinates": [60.494811704123755, -60.391090025302425]}}, {"type": "Feature", "properties": {"norad_id": 31192, "name": "FENGYUN 1C DEB", "group": "fengyun-1c-debris", "lat": -77.93480446397342, "lon": 113.83793951516314, "alt_km": 1016.2594290238712, "timestamp": "2025-12-21T03:56:51.116583+00:00", "meta": {"OBJECT_NAME": "FENGYUN 1C DEB", "OBJECT_ID": "1999-025BJW", "EPOCH": "2025-12-18T05:26:47.399136", "MEAN_MOTION": 14.20969234, "ECCENTRICITY": 0.02596771, "INCLINATION": 98.5531, "RA_OF_ASC_NODE": 335.7459, "ARG_OF_PERICENTER": 87.8687, "MEAN_ANOMALY": 275.22, "EPHEMERIS_TYPE": 0, "CLASSIFICATION_TYPE": "U", "NORAD_CAT_ID": 31192, "ELEMENT_SET_NO": 999, "REV_AT_EPOCH": 96821, "BSTAR": 0.00023851293, "MEAN_MOTION_DOT": 6.81e-06, "MEAN_MOTION_DDOT": 0}, "tle": {"line1": "1 31192U 99025BJW 25352.22693749  .00000681  00000+0  23851-3 0  9996", "line2": "2 31192  98.5531 335.7459 0259677  87.8687 275.2200 14.20969234968219"}}, "geometry": {"type": "Point", "coordinates": [113.83793951516314, -77.93480446397342]}}, {"type": "Feature", "properties": {"norad_id": 31194, "name": "FENGYUN 1C DEB", "group": "fengyun-1c-debris", "lat": -56.620844143102744, "lon": -101.5628917915781, "alt_km": 749.1215959499541, "timestamp": "2025-12-21T03:56:51.116592+00:00", "meta": {"OBJECT_NAME": "FENGYUN 1C DEB", "OBJECT_ID": "1999-025BJY", "EPOCH": "2025-12-20T09:49:44.442624", "MEAN_MOTION": 14.36689054, "ECCENTRICITY": 0.00570396, "INCLINATION": 98.9638, "RA_OF_ASC_NODE": 243.7907, "ARG_OF_PERICENTER": 256.4756, "MEAN_ANOMALY": 103.007, "EPHEMERIS_TYPE": 0, "CLASSIFICATION_TYPE": "U", "NORAD_CAT_ID": 31194, "ELEMENT_SET_NO": 999, "REV_AT_EPOCH": 97237, "BSTAR": 0.0006097291, "MEAN_MOTION_DOT": 1.782e-05, "MEAN_MOTION_DDOT": 0}, "tle": {"line1": "1 31194U 99025BJY 25354.40954216  .00001782  00000+0  60973-3 0  9998", "line2": "2 31194  98.9638 243.7907 0057039 256.4756 103.0070 14.36689054972379"}}, "geometry": {"type": "Point", "coordinates": [-101.5628917915781, -56.620844143102744]}}]}